[{"OBJECT_NAME":"KUIPER-00117","OBJECT_ID":"2025-228C","EPOCH":"2026-03-05T05:47:07.014624","MEAN_MOTION":14.79939421,"ECCENTRICITY":8.83e-5,"INCLINATION":51.9006,"RA_OF_ASC_NODE":17.7692,"ARG_OF_PERICENTER":91.4125,"MEAN_ANOMALY":268.6939,"EPHEMERIS_TYPE":0,"CLASSIFICATION_TYPE":"U","NORAD_CAT_ID":65949,"ELEMENT_SET_NO":999,"REV_AT_EPOCH":2260,"BSTAR":0.00035528158,"MEAN_MOTION_DOT":2.489e-5,"MEAN_MOTION_DDOT":0},{"OBJECT_NAME":"KUIPER-00121","OBJECT_ID":"2025-228D","EPOCH":"2026-03-05T13:12:22.657536","MEAN_MOTION":14.79938855,"ECCENTRICITY":0.00011424,"INCLINATION":51.902,"RA_OF_ASC_NODE":11.3966,"ARG_OF_PERICENTER":112.766,"MEAN_ANOMALY":247.3423,"EPHEMERIS_TYPE":0,"CLASSIFICATION_TYPE":"U","NORAD_CAT_ID":65950,"ELEMENT_SET_NO":999,"REV_AT_EPOCH":2272,"BSTAR":0.00019530501,"MEAN_MOTION_DOT":1.268e-5,"MEAN_MOTION_DDOT":0},{"OBJECT_NAME":"KUIPER-00122","OBJECT_ID":"2025-228E","EPOCH":"2026-03-05T01:34:41.286432","MEAN_MOTION":14.79793574,"ECCENTRICITY":6.709e-5,"INCLINATION":51.9023,"RA_OF_ASC_NODE":23.506,"ARG_OF_PERICENTER":97.943,"MEAN_ANOMALY":262.1608,"EPHEMERIS_TYPE":0,"CLASSIFICATION_TYPE":"U","NORAD_CAT_ID":65951,"ELEMENT_SET_NO":999,"REV_AT_EPOCH":2251,"BSTAR":0.00039032178,"MEAN_MOTION_DOT":2.746e-5,"MEAN_MOTION_DDOT":0},{"OBJECT_NAME":"KUIPER-00123","OBJECT_ID":"2025-228F","EPOCH":"2026-03-05T13:45:45.221184","MEAN_MOTION":14.79972198,"ECCENTRICITY":0.00010909,"INCLINATION":51.9003,"RA_OF_ASC_NODE":21.2951,"ARG_OF_PERICENTER":93.0848,"MEAN_ANOMALY":267.0239,"EPHEMERIS_TYPE":0,"CLASSIFICATION_TYPE":"U","NORAD_CAT_ID":65952,"ELEMENT_SET_NO":999,"REV_AT_EPOCH":2258,"BSTAR":0.00093562994,"MEAN_MOTION_DOT":6.925e-5,"MEAN_MOTION_DDOT":0},{"OBJECT_NAME":"KUIPER-00124","OBJECT_ID":"2025-228G","EPOCH":"2026-03-05T13:57:12.331008","MEAN_MOTION":14.79937815,"ECCENTRICITY":4.228e-5,"INCLINATION":51.901,"RA_OF_ASC_NODE":13.7479,"ARG_OF_PERICENTER":80.0047,"MEAN_ANOMALY":280.0963,"EPHEMERIS_TYPE":0,"CLASSIFICATION_TYPE":"U","NORAD_CAT_ID":65953,"ELEMENT_SET_NO":999,"REV_AT_EPOCH":2269,"BSTAR":0.00033327768,"MEAN_MOTION_DOT":2.321e-5,"MEAN_MOTION_DDOT":0},{"OBJECT_NAME":"KUIPER-00125","OBJECT_ID":"2025-228H","EPOCH":"2026-03-05T12:43:15.802464","MEAN_MOTION":14.79950877,"ECCENTRICITY":9.302e-5,"INCLINATION":51.9032,"RA_OF_ASC_NODE":358.9968,"ARG_OF_PERICENTER":115.6003,"MEAN_ANOMALY":244.5056,"EPHEMERIS_TYPE":0,"CLASSIFICATION_TYPE":"U","NORAD_CAT_ID":65954,"ELEMENT_SET_NO":999,"REV_AT_EPOCH":2289,"BSTAR":0.00097104599,"MEAN_MOTION_DOT":7.192e-5,"MEAN_MOTION_DDOT":0},{"OBJECT_NAME":"KUIPER-00126","OBJECT_ID":"2025-228J","EPOCH":"2026-03-05T14:38:04.534944","MEAN_MOTION":14.79922949,"ECCENTRICITY":0.00017153,"INCLINATION":51.9,"RA_OF_ASC_NODE":18.6431,"ARG_OF_PERICENTER":81.0911,"MEAN_ANOMALY":279.0245,"EPHEMERIS_TYPE":0,"CLASSIFICATION_TYPE":"U","NORAD_CAT_ID":65955,"ELEMENT_SET_NO":999,"REV_AT_EPOCH":2262,"BSTAR":7.4029494e-5,"MEAN_MOTION_DOT":3.43e-6,"MEAN_MOTION_DDOT":0},{"OBJECT_NAME":"KUIPER-00127","OBJECT_ID":"2025-228K","EPOCH":"2026-03-05T13:24:05.095584","MEAN_MOTION":14.76364778,"ECCENTRICITY":0.00013063,"INCLINATION":51.9019,"RA_OF_ASC_NODE":10.1949,"ARG_OF_PERICENTER":179.2301,"MEAN_ANOMALY":180.8662,"EPHEMERIS_TYPE":0,"CLASSIFICATION_TYPE":"U","NORAD_CAT_ID":65956,"ELEMENT_SET_NO":999,"REV_AT_EPOCH":2274,"BSTAR":0.00066536736,"MEAN_MOTION_DOT":4.451e-5,"MEAN_MOTION_DDOT":0},{"OBJECT_NAME":"KUIPER-00128","OBJECT_ID":"2025-228L","EPOCH":"2026-03-05T02:40:09.770880","MEAN_MOTION":14.79862455,"ECCENTRICITY":8.035e-5,"INCLINATION":51.9024,"RA_OF_ASC_NODE":13.362,"ARG_OF_PERICENTER":102.5749,"MEAN_ANOMALY":257.5303,"EPHEMERIS_TYPE":0,"CLASSIFICATION_TYPE":"U","NORAD_CAT_ID":65957,"ELEMENT_SET_NO":999,"REV_AT_EPOCH":2265,"BSTAR":0.0008759556,"MEAN_MOTION_DOT":6.452e-5,"MEAN_MOTION_DDOT":0},{"OBJECT_NAME":"KUIPER-00129","OBJECT_ID":"2025-228M","EPOCH":"2026-03-05T13:20:13.363008","MEAN_MOTION":14.79957738,"ECCENTRICITY":7.931e-5,"INCLINATION":51.9031,"RA_OF_ASC_NODE":6.3825,"ARG_OF_PERICENTER":84.9224,"MEAN_ANOMALY":275.1829,"EPHEMERIS_TYPE":0,"CLASSIFICATION_TYPE":"U","NORAD_CAT_ID":65958,"ELEMENT_SET_NO":999,"REV_AT_EPOCH":2279,"BSTAR":0.00098406064,"MEAN_MOTION_DOT":7.293e-5,"MEAN_MOTION_DDOT":0},{"OBJECT_NAME":"KUIPER-00130","OBJECT_ID":"2025-228N","EPOCH":"2026-03-05T05:59:01.141728","MEAN_MOTION":14.80013766,"ECCENTRICITY":0.00011994,"INCLINATION":51.9053,"RA_OF_ASC_NODE":10.2429,"ARG_OF_PERICENTER":106.4704,"MEAN_ANOMALY":253.639,"EPHEMERIS_TYPE":0,"CLASSIFICATION_TYPE":"U","NORAD_CAT_ID":65959,"ELEMENT_SET_NO":999,"REV_AT_EPOCH":1300,"BSTAR":0.00098509489,"MEAN_MOTION_DOT":7.311e-5,"MEAN_MOTION_DDOT":0},{"OBJECT_NAME":"KUIPER-00134","OBJECT_ID":"2025-228P","EPOCH":"2026-03-05T11:51:39.002688","MEAN_MOTION":15.38458594,"ECCENTRICITY":0.00054927,"INCLINATION":51.8781,"RA_OF_ASC_NODE":340.7035,"ARG_OF_PERICENTER":303.4881,"MEAN_ANOMALY":56.5581,"EPHEMERIS_TYPE":0,"CLASSIFICATION_TYPE":"U","NORAD_CAT_ID":65960,"ELEMENT_SET_NO":999,"REV_AT_EPOCH":2314,"BSTAR":0.0012085454,"MEAN_MOTION_DOT":0.00046489,"MEAN_MOTION_DDOT":0},{"OBJECT_NAME":"KUIPER-00135","OBJECT_ID":"2025-228Q","EPOCH":"2026-03-05T13:16:22.309536","MEAN_MOTION":14.79938212,"ECCENTRICITY":0.00010138,"INCLINATION":51.9053,"RA_OF_ASC_NODE":8.9615,"ARG_OF_PERICENTER":85.9479,"MEAN_ANOMALY":274.1599,"EPHEMERIS_TYPE":0,"CLASSIFICATION_TYPE":"U","NORAD_CAT_ID":65961,"ELEMENT_SET_NO":999,"REV_AT_EPOCH":2275,"BSTAR":0.00099407425,"MEAN_MOTION_DOT":7.366e-5,"MEAN_MOTION_DDOT":0},{"OBJECT_NAME":"KUIPER-00136","OBJECT_ID":"2025-228R","EPOCH":"2026-03-05T06:02:31.124832","MEAN_MOTION":14.79879638,"ECCENTRICITY":0.00013808,"INCLINATION":51.9021,"RA_OF_ASC_NODE":7.7674,"ARG_OF_PERICENTER":99.1538,"MEAN_ANOMALY":260.9581,"EPHEMERIS_TYPE":0,"CLASSIFICATION_TYPE":"U","NORAD_CAT_ID":65962,"ELEMENT_SET_NO":999,"REV_AT_EPOCH":2274,"BSTAR":0.0010523481,"MEAN_MOTION_DOT":7.8e-5,"MEAN_MOTION_DDOT":0},{"OBJECT_NAME":"KUIPER-00137","OBJECT_ID":"2025-228S","EPOCH":"2026-03-04T00:57:13.354560","MEAN_MOTION":14.8310941,"ECCENTRICITY":7.371e-5,"INCLINATION":51.9034,"RA_OF_ASC_NODE":10.5966,"ARG_OF_PERICENTER":94.2766,"MEAN_ANOMALY":265.8282,"EPHEMERIS_TYPE":0,"CLASSIFICATION_TYPE":"U","NORAD_CAT_ID":65963,"ELEMENT_SET_NO":999,"REV_AT_EPOCH":2260,"BSTAR":0.0010436554,"MEAN_MOTION_DOT":8.369e-5,"MEAN_MOTION_DDOT":0},{"OBJECT_NAME":"KUIPER-00138","OBJECT_ID":"2025-228T","EPOCH":"2026-03-05T13:27:55.933920","MEAN_MOTION":14.79924381,"ECCENTRICITY":5.963e-5,"INCLINATION":51.9028,"RA_OF_ASC_NODE":1.3496,"ARG_OF_PERICENTER":95.1986,"MEAN_ANOMALY":264.9045,"EPHEMERIS_TYPE":0,"CLASSIFICATION_TYPE":"U","NORAD_CAT_ID":65964,"ELEMENT_SET_NO":999,"REV_AT_EPOCH":2286,"BSTAR":-0.00024782814,"MEAN_MOTION_DOT":-2.109e-5,"MEAN_MOTION_DDOT":0},{"OBJECT_NAME":"KUIPER-00140","OBJECT_ID":"2025-228U","EPOCH":"2026-03-05T02:03:22.977504","MEAN_MOTION":14.79931045,"ECCENTRICITY":3.829e-5,"INCLINATION":51.9009,"RA_OF_ASC_NODE":6.0343,"ARG_OF_PERICENTER":115.2047,"MEAN_ANOMALY":244.8956,"EPHEMERIS_TYPE":0,"CLASSIFICATION_TYPE":"U","NORAD_CAT_ID":65965,"ELEMENT_SET_NO":999,"REV_AT_EPOCH":2275,"BSTAR":0.00084750754,"MEAN_MOTION_DOT":6.245e-5,"MEAN_MOTION_DDOT":0}]
